OBJECT_NAME,OBJECT_ID,EPOCH,MEAN_MOTION,ECCENTRICITY,INCLINATION,RA_OF_ASC_NODE,ARG_OF_PERICENTER,MEAN_ANOMALY,EPHEMERIS_TYPE,CLASSIFICATION_TYPE,NORAD_CAT_ID,ELEMENT_SET_NO,REV_AT_EPOCH,BSTAR,MEAN_MOTION_DOT,MEAN_MOTION_DDOT
INSAT-3D,2013-038B,2026-07-10T14:13:14.294784,1.00270716,.00005024,1.9834,82.2471,78.8506,110.2513,0,U,39216,999,4731,0,-.331E-5,0
WGS F6 (USA 244),2013-041A,2026-07-10T08:02:59.322048,1.00270133,.00014137,0.0192,34.5305,193.2095,46.0904,0,U,39222,999,4629,0,.1E-5,0
ES'HAIL 1,2013-044A,2026-07-10T13:43:35.984928,1.00273309,.0002172,0.0477,9.9284,104.6585,45.3110,0,U,39233,999,4686,0,.153E-5,0
GSAT-7,2013-044B,2026-07-10T13:57:23.405760,1.00271145,.0003157,0.1384,90.0085,177.6412,304.1521,0,U,39234,999,4549,0,-.67E-6,0
AMOS-4,2013-045A,2026-07-10T14:39:38.471616,1.00272058,.00023155,0.0452,258.2471,177.8051,137.3984,0,U,39237,999,4719,0,.17E-6,0
AEHF-3 (USA 246),2013-050A,2026-07-10T15:13:05.401056,1.00269918,.00883222,5.3500,66.9705,187.6930,137.9010,0,U,39256,999,4588,0,.34E-6,0
ASTRA 2E,2013-056A,2026-07-10T13:44:28.401216,1.00272655,.00027211,0.0837,307.8525,177.9376,37.3104,0,U,39285,999,4665,0,.16E-5,0
FM-6,2013-058A,2026-07-10T13:03:09.860832,1.00269783,.00012802,0.0174,39.3029,137.9736,190.6257,0,U,39360,999,4630,0,-.6E-7,0
RADUGA-1M 3,2013-062A,2026-07-09T17:14:28.833792,1.00273093,.00017957,6.0122,72.0649,269.8581,239.3395,0,U,39375,999,4633,0,.16E-5,0
SES-8,2013-071A,2026-07-10T15:28:19.156224,1.00271334,.00026366,0.0500,264.8568,204.5510,146.2374,0,U,39460,999,4466,0,-.26E-5,0
INMARSAT 5-F1,2013-073A,2026-07-09T22:30:20.555424,1.00273292,.00003968,0.0182,38.9022,284.8791,4.3070,0,U,39476,999,4580,0,.39E-6,0
TKSAT-1 (TUPAC KATARI),2013-075A,2026-07-10T13:11:24.071424,1.00272171,.00023917,0.0483,115.3931,356.9429,286.7939,0,U,39481,999,4583,0,-.185E-5,0
EXPRESS-AM5,2013-077A,2026-07-08T21:12:29.284128,1.00270143,.00000465,0.0245,284.0004,199.4179,261.5645,0,U,39487,999,4657,0,-.266E-5,0
GSAT-14,2014-001A,2026-07-10T13:57:23.405760,1.00270169,.00018853,0.0208,42.2969,172.2714,357.2543,0,U,39498,999,4561,0,0,0
THAICOM 6,2014-002A,2026-07-10T08:50:40.964352,1.00268362,.00045515,0.0404,123.3096,0.9859,15.1310,0,U,39500,999,4569,0,-.109E-5,0
TDRS 12,2014-004A,2026-07-10T11:41:55.973760,1.00274077,.0004251,3.9998,19.4518,203.9145,199.6346,0,U,39504,999,4451,0,-.263E-5,0
ABS-2,2014-006A,2026-07-10T10:32:21.874848,1.00271030,.00033361,0.0265,287.8578,168.4761,65.0302,0,U,39508,999,4551,0,-.75E-6,0
ATHENA-FIDUS,2014-006B,2026-07-10T12:04:23.819808,1.00273357,.00012527,0.0133,99.4239,25.2830,22.6260,0,U,39509,999,4532,0,.164E-5,0
TURKSAT 4A,2014-007A,2026-07-10T10:22:52.784832,1.00271677,.00011279,0.0690,284.9747,327.5647,233.5188,0,U,39522,999,4520,0,.156E-5,0
EXPRESS-AT1,2014-010A,2026-07-10T12:12:15.566400,1.00308502,.00044639,0.3140,85.5258,53.1348,38.0923,0,U,39612,999,4505,0,.7E-7,0
EXPRESS-AT2,2014-010B,2026-07-10T10:26:59.889696,1.00271078,.0000443,0.0177,350.5844,279.6330,230.8839,0,U,39613,999,4473,0,.89E-6,0
AMAZONAS 4A,2014-011A,2026-07-10T13:15:16.200576,1.00271028,.00046297,0.0608,203.9040,292.1842,277.2182,0,U,39616,999,4494,0,-.243E-5,0
ASTRA 5B,2014-011B,2026-07-10T12:00:24.203232,1.00271823,.00017849,0.0626,314.2374,162.6118,15.1666,0,U,39617,999,4490,0,.147E-5,0
IRNSS-1B,2014-017A,2026-07-09T17:02:38.694048,1.00274063,.00223267,28.8843,240.0140,191.4588,166.9168,0,U,39635,999,4501,0,.147E-5,0
LUCH-5V,2014-023A,2026-07-10T17:28:39.501408,1.00275251,.0002037,5.1879,69.4946,79.5163,136.4713,0,U,39727,999,4459,0,-.265E-5,0
KAZSAT-3,2014-023B,2026-07-10T10:27:29.841984,1.00271045,.00002395,0.0104,17.0509,270.3344,216.3511,0,U,39728,999,4269,0,.71E-6,0
EUTELSAT 3B,2014-030A,2026-07-10T13:37:14.095200,1.00269770,.00041187,0.0616,349.2844,124.0058,22.6069,0,U,39773,999,4430,0,.29E-6,0
ASIASAT 8 (AMOS-7),2014-046A,2026-07-10T13:56:12.659712,1.00269694,.00013252,0.0161,350.0839,127.7058,125.0712,0,U,40107,999,10238,0,-.323E-5,0
ASIASAT 6,2014-052A,2026-07-10T15:30:03.962016,1.00267256,.00008382,0.0244,37.0123,131.2770,112.6995,0,U,40141,999,4331,0,0,0
OPTUS 10,2014-054A,2026-07-10T11:11:11.287104,1.00271044,.00019462,0.0483,69.5916,41.3086,141.2837,0,U,40146,999,4326,0,-.137E-5,0
MEASAT-3B,2014-054B,2026-07-10T13:24:38.653344,1.00270909,.00035119,0.0347,41.6338,23.9496,155.5510,0,U,40147,999,4314,0,-.232E-5,0
HIMAWARI-8,2014-060A,2026-07-09T21:09:54.851040,1.00269387,.00008296,0.0305,288.7018,203.5253,253.7182,0,U,40267,999,4298,0,-.264E-5,0
IRNSS-1C,2014-061A,2026-07-09T19:10:42.672000,1.00273205,.00221475,6.5737,88.5012,4.8380,205.0895,0,U,40269,999,4291,0,-.156E-5,0
INTELSAT 30 (IS-30),2014-062A,2026-07-10T06:18:34.396704,1.00271243,.00012376,0.0192,51.4260,336.2755,260.0814,0,U,40271,999,702,0,-.14E-5,0
ARSAT 1,2014-062B,2026-07-10T13:15:31.177152,1.00271465,.00017551,0.0481,282.6282,185.8826,307.0436,0,U,40272,999,4285,0,-.25E-5,0
EUTELSAT 53A,2014-064A,2026-07-10T00:10:14.049120,1.00271749,.00017055,0.0133,315.6549,243.9362,143.9064,0,U,40277,999,4179,0,.11E-5,0
GSAT-16,2014-078A,2026-07-10T13:52:05.171232,1.00271908,.00072938,0.0230,291.2444,160.5124,99.8362,0,U,40332,999,4234,0,.95E-6,0
DIRECTV 14,2014-078B,2026-07-10T15:00:25.975296,1.00269904,.00002684,0.0097,22.1783,296.2025,96.0342,0,U,40333,999,4227,0,-.116E-5,0
YAMAL 401,2014-082A,2026-07-10T07:10:36.908256,1.00269399,.00005049,0.0050,212.4959,203.8081,69.5177,0,U,40345,999,4215,0,-.217E-5,0
ASTRA 2G,2014-089A,2026-07-10T13:44:20.912928,1.00273020,.00042928,0.0470,13.5169,64.2418,85.0261,0,U,40364,999,4220,0,.16E-5,0
FENGYUN 2G,2014-090A,2026-07-10T15:08:10.129920,1.00262279,.00041511,5.6942,72.5332,151.0571,31.3501,0,U,40367,999,4223,0,-.295E-5,0
MUOS-3,2015-002A,2026-07-10T10:06:31.851936,1.00270020,.00532036,4.5645,43.6136,177.4199,203.4164,0,U,40374,999,4182,0,-.123E-5,0
INMARSAT 5-F2,2015-005A,2026-07-10T11:37:56.356320,1.00271906,.00004555,0.0034,93.6661,10.6736,303.5479,0,U,40384,999,4122,0,-.275E-5,0
ABS-3A,2015-010A,2026-07-10T05:02:09.902976,1.00275719,.0001741,0.0443,70.5448,358.7553,291.3938,0,U,40424,999,4160,0,0,0
EUTELSAT 115 WEST B,2015-010B,2026-07-10T13:03:32.324832,1.00272907,.00002055,0.0081,162.5796,288.1332,278.7386,0,U,40425,999,4161,0,-.15E-6,0
EXPRESS-AM7,2015-012A,2026-07-10T13:47:43.089792,1.00267984,.00027089,0.0171,351.0077,125.1767,59.2537,0,U,40505,999,4124,0,.16E-5,0
BEIDOU-3S IGSO-1S,2015-019A,2026-07-02T19:12:21.705408,1.00680073,.00768606,49.1798,295.2769,219.1125,144.2493,0,U,40549,999,4123,0,-.19E-5,0
THOR 7,2015-022A,2026-07-10T13:35:59.214912,1.00270557,.00022801,0.0206,62.5125,52.9463,16.3648,0,U,40613,999,4105,0,0,0
TURKMENALEM52E/MONACOSAT,2015-023A,2026-07-10T13:51:12.754080,1.00269329,.00026047,0.0183,76.5005,40.9234,70.8951,0,U,40617,999,4108,0,.114E-5,0
DIRECTV 15,2015-026A,2026-07-10T11:24:20.159712,1.00272881,.00001112,0.0194,72.3901,163.9672,120.2514,0,U,40663,999,4069,0,-.93E-6,0
SKY MEXICO-1,2015-026B,2026-07-10T13:13:53.832000,1.00271340,.00023001,0.0052,42.6285,91.7989,273.7228,0,U,40664,999,4068,0,-.224E-5,0
METEOSAT-11 (MSG-4),2015-034A,2026-07-10T06:48:24.037920,1.00270327,.0002249,3.2576,70.9662,352.1949,336.4015,0,U,40732,999,744,0,.69E-6,0
STAR ONE C4,2015-034B,2026-07-10T13:16:23.592576,1.00270774,.00013791,0.0268,333.6810,113.6221,330.2762,0,U,40733,999,4024,0,-.255E-5,0
WGS F7 (USA 263),2015-036A,2026-07-10T02:27:41.713632,1.00271632,.00007502,0.0454,68.5326,141.9874,289.4198,0,U,40746,999,4010,0,0,0
INTELSAT 34 (IS-34),2015-039A,2026-07-10T01:21:54.642816,1.00270657,.00001224,0.0101,16.1720,324.1781,272.6171,0,U,40874,999,3986,0,-.274E-5,0
EUTELSAT 8 WEST B,2015-039B,2026-07-10T13:33:51.918336,1.00271709,.0003813,0.0623,3.8367,99.6442,20.4668,0,U,40875,999,3989,0,-.56E-6,0
GSAT-6,2015-041A,2026-07-10T10:34:29.172288,1.00272647,.00031173,1.9777,82.3068,21.4972,65.6389,0,U,40880,999,3983,0,-.152E-5,0
INMARSAT 5-F3,2015-042A,2026-07-10T04:11:32.441856,1.00270756,.00004168,0.0184,37.9216,144.6018,348.0481,0,U,40882,999,3980,0,.61E-6,0
MUOS-4,2015-044A,2026-07-10T13:57:45.869760,1.00271223,.00566354,4.3718,42.3614,3.3512,167.2180,0,U,40887,999,3979,0,-.87E-6,0
TJS-1,2015-046A,2026-07-10T07:29:50.064864,1.00273335,.00050074,0.3800,84.7830,16.3652,94.5556,0,U,40892,999,3980,0,-.145E-5,0
EXPRESS-AM8,2015-048A,2026-07-10T10:07:01.804224,1.00270834,.00001629,0.0149,309.6061,44.7375,71.7552,0,U,40895,999,3957,0,-.101E-5,0
BEIDOU-3S IGSO-2S,2015-053A,2026-07-10T15:27:51.282720,1.00254237,.00662932,49.1849,258.5032,193.1120,162.6279,0,U,40938,999,3958,0,-.97E-6,0
SKY MUSTER 1 (NBN1A),2015-054A,2026-07-10T04:00:26.006688,1.00270506,.0001543,0.0185,10.4231,99.4198,18.6038,0,U,40940,999,3949,0,0,0
ARSAT 2,2015-054B,2026-07-10T13:13:16.392288,1.00271451,.00018841,0.0457,281.3266,181.5211,302.9463,0,U,40941,999,3953,0,-.215E-5,0
MORELOS 3,2015-056A,2026-07-10T13:04:02.277120,1.00272226,.00002823,3.2061,15.6706,110.0849,245.6178,0,U,40946,999,3951,0,-.36E-6,0
APSTAR-9,2015-059A,2026-07-10T17:42:09.209376,1.00273316,.0002979,0.0163,23.5410,163.4468,149.2027,0,U,40982,999,3935,0,-.256E-5,0
TURKSAT 4B,2015-060A,2026-07-10T13:50:35.314368,1.00270629,.00023662,0.0022,100.9304,17.8835,67.2917,0,U,40984,999,3933,0,.125E-5,0
ZHONGXING-2C,2015-063A,2026-07-10T17:31:10.260768,1.00274173,.0007993,0.3316,88.7409,100.3362,105.7842,0,U,41021,999,3921,0,-.315E-5,0
GSAT-15,2015-065A,2026-07-10T13:24:38.653344,1.00269859,.00035717,0.0197,28.2502,63.3494,131.5514,0,U,41028,999,3903,0,0,0
BADR-7 (ARABSAT-6B),2015-065B,2026-07-10T13:43:43.473216,1.00271826,.00047297,0.0126,257.9635,305.4831,316.9535,0,U,41029,999,3900,0,.154E-5,0
LAOSAT 1,2015-067A,2026-07-10T14:12:59.319072,1.00270781,.00022506,0.0407,176.2922,242.2156,211.7744,0,U,41034,999,3909,0,-.333E-5,0
TELSTAR 12V,2015-068A,2026-07-10T10:06:46.827648,1.00271983,.00021118,0.0140,336.2644,141.7429,307.0425,0,U,41036,999,3885,0,-.108E-5,0
